[
    {
        "Altitude(m)": 717643.2490386806,
        "Argument of Periapsis(deg)": 0.0,
        "Eccentricity": 0.0,
        "Inclination(deg)": 45.0,
        "Latitude(deg)": -44.57612111942604,
        "Longitude(deg)": -88.49778670364715,
        "Mean Anomaly(deg)": -81.8182,
        "RAAN(deg)": 90.0,
        "Satellite Name": "Constellation 1 413",
        "Satellite Number": 413,
        "Semi-Major Axis(m)": 7083131.272910544,
        "Time(s)": 0
    },
    {
        "Altitude(m)": 717639.7126206915,
        "Argument of Periapsis(deg)": 5.994800624540561e-05,
        "Eccentricity": 0.0,
        "Inclination(deg)": 45.0,
        "Latitude(deg)": -44.56756096343138,
        "Longitude(deg)": -88.41796348923565,
        "Mean Anomaly(deg)": -81.7574988597501,
        "RAAN(deg)": 89.99994341083443,
        "Satellite Name": "Constellation 1 413",
        "Satellite Number": 413,
        "Semi-Major Axis(m)": 7083131.272910544,
        "Time(s)": 1
    },
    {
        "Altitude(m)": 717636.1506887436,
        "Argument of Periapsis(deg)": 0.00011989601249081122,
        "Eccentricity": 0.0,
        "Inclination(deg)": 45.0,
        "Latitude(deg)": -44.55893915494758,
        "Longitude(deg)": -88.33816492427555,
        "Mean Anomaly(deg)": -81.69679771950028,
        "RAAN(deg)": 89.99988682166885,
        "Satellite Name": "Constellation 1 413",
        "Satellite Number": 413,
        "Semi-Major Axis(m)": 7083131.272910544,
        "Time(s)": 2
    },
    {
        "Altitude(m)": 717632.5632559621,
        "Argument of Periapsis(deg)": 0.00017984401873621686,
        "Eccentricity": 0.0,
        "Inclination(deg)": 45.0,
        "Latitude(deg)": -44.55025573026341,
        "Longitude(deg)": -88.25839117078085,
        "Mean Anomaly(deg)": -81.63609657925034,
        "RAAN(deg)": 89.9998302325033,
        "Satellite Name": "Constellation 1 413",
        "Satellite Number": 413,
        "Semi-Major Axis(m)": 7083131.272910544,
        "Time(s)": 3
    },
    {
        "Altitude(m)": 717628.9503355586,
        "Argument of Periapsis(deg)": 0.00023979202498162244,
        "Eccentricity": 0.0,
        "Inclination(deg)": 45.0,
        "Latitude(deg)": -44.54151072589987,
        "Longitude(deg)": -88.17864239035492,
        "Mean Anomaly(deg)": -81.5753954390004,
        "RAAN(deg)": 89.99977364333773,
        "Satellite Name": "Constellation 1 413",
        "Satellite Number": 413,
        "Semi-Major Axis(m)": 7083131.272910544,
        "Time(s)": 4
    },
    {
        "Altitude(m)": 717625.311940849,
        "Argument of Periapsis(deg)": 0.00029974003122702807,
        "Eccentricity": 0.0,
        "Inclination(deg)": 45.0,
        "Latitude(deg)": -44.53270417860936,
        "Longitude(deg)": -88.09891874418757,
        "Mean Anomaly(deg)": -81.5146942987505,
        "RAAN(deg)": 89.99971705417215,
        "Satellite Name": "Constellation 1 413",
        "Satellite Number": 413,
        "Semi-Major Axis(m)": 7083131.272910544,
        "Time(s)": 5
    },
    {
        "Altitude(m)": 717621.6480852343,
        "Argument of Periapsis(deg)": 0.00035968803747243373,
        "Eccentricity": 0.0,
        "Inclination(deg)": 45.0,
        "Latitude(deg)": -44.523836125374935,
        "Longitude(deg)": -88.01922039305319,
        "Mean Anomaly(deg)": -81.45399315850064,
        "RAAN(deg)": 89.99966046500658,
        "Satellite Name": "Constellation 1 413",
        "Satellite Number": 413,
        "Semi-Major Axis(m)": 7083131.272910544,
        "Time(s)": 6
    },
    {
        "Altitude(m)": 717617.9587822128,
        "Argument of Periapsis(deg)": 0.00041963604371783933,
        "Eccentricity": 0.0,
        "Inclination(deg)": 45.0,
        "Latitude(deg)": -44.514906603409656,
        "Longitude(deg)": -87.93954766540556,
        "Mean Anomaly(deg)": -81.39329201825069,
        "RAAN(deg)": 89.99960387584102,
        "Satellite Name": "Constellation 1 413",
        "Satellite Number": 413,
        "Semi-Major Axis(m)": 7083131.272910544,
        "Time(s)": 7
    },
    {
        "Altitude(m)": 717614.244045372,
        "Argument of Periapsis(deg)": 0.0004795840499632449,
        "Eccentricity": 0.0,
        "Inclination(deg)": 45.0,
        "Latitude(deg)": -44.50591565015588,
        "Longitude(deg)": -87.85990038498711,
        "Mean Anomaly(deg)": -81.33259087800083,
        "RAAN(deg)": 89.99954728667544,
        "Satellite Name": "Constellation 1 413",
        "Satellite Number": 413,
        "Semi-Major Axis(m)": 7083131.272910544,
        "Time(s)": 8
    },
    {
        "Altitude(m)": 717610.5038884032,
        "Argument of Periapsis(deg)": 0.0005395320562086505,
        "Eccentricity": 0.0,
        "Inclination(deg)": 45.0,
        "Latitude(deg)": -44.496863303284506,
        "Longitude(deg)": -87.78027887940985,
        "Mean Anomaly(deg)": -81.27188973775091,
        "RAAN(deg)": 89.99949069750987,
        "Satellite Name": "Constellation 1 413",
        "Satellite Number": 413,
        "Semi-Major Axis(m)": 7083131.272910544,
        "Time(s)": 9
    },
    {
        "Altitude(m)": 717606.7383250819,
        "Argument of Periapsis(deg)": 0.0005994800624540561,
        "Eccentricity": 0.0,
        "Inclination(deg)": 45.0,
        "Latitude(deg)": -44.487749600694194,
        "Longitude(deg)": -87.7006833077646,
        "Mean Anomaly(deg)": -81.21118859750105,
        "RAAN(deg)": 89.99943410834429,
        "Satellite Name": "Constellation 1 413",
        "Satellite Number": 413,
        "Semi-Major Axis(m)": 7083131.272910544,
        "Time(s)": 10
    },
    {
        "Altitude(m)": 717602.9473692765,
        "Argument of Periapsis(deg)": 0.0006594280686994618,
        "Eccentricity": 0.0,
        "Inclination(deg)": 45.0,
        "Latitude(deg)": -44.478574580510745,
        "Longitude(deg)": -87.62111382871576,
        "Mean Anomaly(deg)": -81.1504874572511,
        "RAAN(deg)": 89.99937751917874,
        "Satellite Name": "Constellation 1 413",
        "Satellite Number": 413,
        "Semi-Major Axis(m)": 7083131.272910544,
        "Time(s)": 11
    },
    {
        "Altitude(m)": 717599.1310349581,
        "Argument of Periapsis(deg)": 0.0007193760749448675,
        "Eccentricity": 0.0,
        "Inclination(deg)": 45.0,
        "Latitude(deg)": -44.46933828108627,
        "Longitude(deg)": -87.54157060049967,
        "Mean Anomaly(deg)": -81.08978631700118,
        "RAAN(deg)": 89.99932093001317,
        "Satellite Name": "Constellation 1 413",
        "Satellite Number": 413,
        "Semi-Major Axis(m)": 7083131.272910544,
        "Time(s)": 12
    },
    {
        "Altitude(m)": 717595.2893361818,
        "Argument of Periapsis(deg)": 0.000779324081190273,
        "Eccentricity": 0.0,
        "Inclination(deg)": 45.0,
        "Latitude(deg)": -44.46004074099855,
        "Longitude(deg)": -87.46205378092216,
        "Mean Anomaly(deg)": -81.02908517675134,
        "RAAN(deg)": 89.99926434084759,
        "Satellite Name": "Constellation 1 413",
        "Satellite Number": 413,
        "Semi-Major Axis(m)": 7083131.272910544,
        "Time(s)": 13
    },
    {
        "Altitude(m)": 717591.422287099,
        "Argument of Periapsis(deg)": 0.0008392720874356787,
        "Eccentricity": 0.0,
        "Inclination(deg)": 45.0,
        "Latitude(deg)": -44.45068199905024,
        "Longitude(deg)": -87.38256352735652,
        "Mean Anomaly(deg)": -80.96838403650148,
        "RAAN(deg)": 89.99920775168202,
        "Satellite Name": "Constellation 1 413",
        "Satellite Number": 413,
        "Semi-Major Axis(m)": 7083131.272910544,
        "Time(s)": 14
    },
    {
        "Altitude(m)": 717587.5299019611,
        "Argument of Periapsis(deg)": 0.0008992200936810842,
        "Eccentricity": 0.0,
        "Inclination(deg)": 45.0,
        "Latitude(deg)": -44.44126209426805,
        "Longitude(deg)": -87.30310016483878,
        "Mean Anomaly(deg)": -80.90768289625152,
        "RAAN(deg)": 89.99915116251645,
        "Satellite Name": "Constellation 1 413",
        "Satellite Number": 413,
        "Semi-Major Axis(m)": 7083131.272910544,
        "Time(s)": 15
    },
    {
        "Altitude(m)": 717583.612195095,
        "Argument of Periapsis(deg)": 0.0009591680999264898,
        "Eccentricity": 0.0,
        "Inclination(deg)": 45.0,
        "Latitude(deg)": -44.43178106590224,
        "Longitude(deg)": -87.22366351367681,
        "Mean Anomaly(deg)": -80.8469817560016,
        "RAAN(deg)": 89.99909457335089,
        "Satellite Name": "Constellation 1 413",
        "Satellite Number": 413,
        "Semi-Major Axis(m)": 7083131.272910544,
        "Time(s)": 16
    },
    {
        "Altitude(m)": 717579.6691809384,
        "Argument of Periapsis(deg)": 0.0010191161061718953,
        "Eccentricity": 0.0,
        "Inclination(deg)": 45.0,
        "Latitude(deg)": -44.422238953425605,
        "Longitude(deg)": -87.1442538980318,
        "Mean Anomaly(deg)": -80.78628061575174,
        "RAAN(deg)": 89.9990379841853,
        "Satellite Name": "Constellation 1 413",
        "Satellite Number": 413,
        "Semi-Major Axis(m)": 7083131.272910544,
        "Time(s)": 17
    },
    {
        "Altitude(m)": 717575.7008740177,
        "Argument of Periapsis(deg)": 0.001079064112417301,
        "Eccentricity": 0.0,
        "Inclination(deg)": 45.0,
        "Latitude(deg)": -44.41263579653287,
        "Longitude(deg)": -87.06487147352676,
        "Mean Anomaly(deg)": -80.72557947550182,
        "RAAN(deg)": 89.99898139501974,
        "Satellite Name": "Constellation 1 413",
        "Satellite Number": 413,
        "Semi-Major Axis(m)": 7083131.272910544,
        "Time(s)": 18
    }
]